STARLINK-36482          
1 67309U 26002E   26068.06261436  .00043047  00000+0  15648-2 0  9998
2 67309  43.0008 328.7520 0001360 281.0534  79.0165 15.27577953 10989
2025-313BE              
1 67482U 25313BE  26068.69721505  .00077178  00000+0  26504-2 0  9996
2 67482  97.3989 145.3568 0007208 335.3714  24.7181 15.29801687  7972
